COMMENT,ORIGINATOR,NORAD_CAT_ID,OBJECT_NAME,OBJECT_TYPE,CLASSIFICATION_TYPE,INTLDES,EPOCH,EPOCH_MICROSECONDS,MEAN_MOTION,ECCENTRICITY,INCLINATION,RA_OF_ASC_NODE,ARG_OF_PERICENTER,MEAN_ANOMALY,EPHEMERIS_TYPE,ELEMENT_SET_NO,REV_AT_EPOCH,BSTAR,MEAN_MOTION_DOT,MEAN_MOTION_DDOT,FILE,TLE_LINE0,TLE_LINE1,TLE_LINE2,OBJECT_ID,OBJECT_NUMBER,SEMIMAJOR_AXIS,PERIOD,APOGEE,PERIGEE,DECAYED,date
GENERATED VIA SPACETRACK.ORG API,18 SPCS,48894,SPACEBEE-107,PAYLOAD,U,21059R,2023/1/26 3:04,112704,15.22469201,0.000855,97.5791,161.1844,47.0941,313.1011,0,999,8773,0.0013451,0.00031201,0,3761519,0 SPACEBEE-107,1 48894U 21059R   23026.12805686  .00031201  00000-0  13451-2 0  9992,2 48894  97.5791 161.1844 0008550  47.0941 313.1011 15.22469201 87738,2021-059R,48894,6876.532,94.583,504.277,492.518,0,2023/2/16
GENERATED VIA SPACETRACK.ORG API,18 SPCS,48894,SPACEBEE-107,PAYLOAD,U,21059R,2023/1/26 7:48,884096,15.22478026,0.0008558,97.5791,161.3832,46.0893,314.1048,0,999,8776,0.0011634,0.00026968,0,3761951,0 SPACEBEE-107,1 48894U 21059R   23026.32523014  .00026968  00000-0  11634-2 0  9991,2 48894  97.5791 161.3832 0008558  46.0893 314.1048 15.22478026 87769,2021-059R,48894,6876.506,94.583,504.256,492.486,0,2023/2/17
GENERATED VIA SPACETRACK.ORG API,18 SPCS,48894,SPACEBEE-107,PAYLOAD,U,21059R,2023/1/27 7:27,960,15.22528532,0.0008584,97.579,162.3774,43.0056,317.1849,0,999,8791,0.00099437,0.00023062,0,3762762,0 SPACEBEE-107,1 48894U 21059R   23027.31107640  .00023062  00000-0  99437-3 0  9994,2 48894  97.5790 162.3774 0008584  43.0056 317.1849 15.22528532 87918,2021-059R,48894,6876.354,94.58,504.121,492.316,0,2023/2/18
GENERATED VIA SPACETRACK.ORG API,18 SPCS,48894,SPACEBEE-107,PAYLOAD,U,21059R,2023/1/27 7:27,960,15.22528532,0.0008584,97.579,162.3774,43.0056,317.1849,0,999,8791,0.00099437,0.00023062,0,3762956,0 SPACEBEE-107,1 48894U 21059R   23027.31107640  .00023062  00000-0  99437-3 0  9994,2 48894  97.5790 162.3774 0008584  43.0056 317.1849 15.22528532 87918,2021-059R,48894,6876.354,94.58,504.121,492.316,0,2023/2/19
GENERATED VIA SPACETRACK.ORG API,18 SPCS,48894,SPACEBEE-107,PAYLOAD,U,21059R,2023/1/27 20:05,652512,15.22556014,0.0008545,97.5789,162.9075,41.6416,318.5469,0,999,8799,0.0010154,0.00023572,0,3763218,0 SPACEBEE-107,1 48894U 21059R   23027.83684783  .00023572  00000-0  10154-2 0  9993,2 48894  97.5789 162.9075 0008545  41.6416 318.5469 15.22556014 87994,2021-059R,48894,6876.271,94.578,504.012,492.26,0,2023/2/20
GENERATED VIA SPACETRACK.ORG API,18 SPCS,48894,SPACEBEE-107,PAYLOAD,U,21059R,2023/1/28 8:42,586944,15.225794,0.000857,97.5788,163.4381,40.2662,319.9207,0,999,8807,0.0009721,0.00022576,0,3763757,0 SPACEBEE-107,1 48894U 21059R   23028.36261096  .00022576  00000-0  97210-3 0  9992,2 48894  97.5788 163.4381 0008570  40.2662 319.9207 15.22579400 88074,2021-059R,48894,6876.201,94.576,503.959,492.173,0,2023/2/21
GENERATED VIA SPACETRACK.ORG API,18 SPCS,48894,SPACEBEE-107,PAYLOAD,U,21059R,2023/1/28 8:42,586944,15.225794,0.000857,97.5788,163.4381,40.2662,319.9207,0,999,8807,0.0009721,0.00022576,0,3763924,0 SPACEBEE-107,1 48894U 21059R   23028.36261096  .00022576  00000-0  97210-3 0  9992,2 48894  97.5788 163.4381 0008570  40.2662 319.9207 15.22579400 88074,2021-059R,48894,6876.201,94.576,503.959,492.173,0,2023/2/22
GENERATED VIA SPACETRACK.ORG API,18 SPCS,48894,SPACEBEE-107,PAYLOAD,U,21059R,2023/1/28 21:19,840544,15.22600201,0.0008535,97.5786,163.9684,38.6198,321.5647,0,999,8815,0.00080245,0.00018625,0,3764201,0 SPACEBEE-107,1 48894U 21059R   23028.88836621  .00018625  00000-0  80245-3 0  9991,2 48894  97.5786 163.9684 0008535  38.6198 321.5647 15.22600201 88159,2021-059R,48894,6876.138,94.575,503.872,492.134,0,2023/2/23
GENERATED VIA SPACETRACK.ORG API,18 SPCS,48894,SPACEBEE-107,PAYLOAD,U,21059R,2023/1/29 20:58,488640,15.22638048,0.0008523,97.5785,164.9626,34.6259,325.553,0,999,8830,0.0007348,0.00017064,0,3765015,0 SPACEBEE-107,1 48894U 21059R   23029.87413760  .00017064  00000-0  73480-3 0  9995,2 48894  97.5785 164.9626 0008523  34.6259 325.5530 15.22638048 88308,2021-059R,48894,6876.024,94.573,503.75,492.029,0,2023/2/24
GENERATED VIA SPACETRACK.ORG API,18 SPCS,48894,SPACEBEE-107,PAYLOAD,U,21059R,2023/1/29 22:33,433120,15.22641184,0.0008482,97.5784,165.0289,34.3529,325.8254,0,999,8831,0.00076917,0.00017869,0,3765153,0 SPACEBEE-107,1 48894U 21059R   23029.93985455  .00017869  00000-0  76917-3 0  9998,2 48894  97.5784 165.0289 0008482  34.3529 325.8254 15.22641184 88317,2021-059R,48894,6876.015,94.573,503.712,492.047,0,2023/2/25
GENERATED VIA SPACETRACK.ORG API,18 SPCS,48894,SPACEBEE-107,PAYLOAD,U,21059R,2023/1/30 8:01,105184,15.22654228,0.0008521,97.5785,165.4267,32.7867,327.3896,0,999,8837,0.00075298,0.00017497,0,3765576,0 SPACEBEE-107,1 48894U 21059R   23030.33415631  .00017497  00000-0  75298-3 0  9996,2 48894  97.5785 165.4267 0008521  32.7867 327.3896 15.22654228 88377,2021-059R,48894,6875.975,94.572,503.699,491.981,0,2023/2/26
GENERATED VIA SPACETRACK.ORG API,18 SPCS,48894,SPACEBEE-107,PAYLOAD,U,21059R,2023/1/30 22:12,975648,15.22675347,0.0008475,97.5785,166.0229,30.8134,329.3598,0,999,8846,0.00074565,0.00017336,0,3765849,0 SPACEBEE-107,1 48894U 21059R   23030.92560157  .00017336  00000-0  74565-3 0  9993,2 48894  97.5785 166.0229 0008475  30.8134 329.3598 15.22675347 88462,2021-059R,48894,6875.912,94.57,503.604,491.949,0,2023/2/27
GENERATED VIA SPACETRACK.ORG API,18 SPCS,48894,SPACEBEE-107,PAYLOAD,U,21059R,2023/1/31 2:56,454848,15.2268219,0.0008461,97.5785,166.2218,30.1553,330.0168,0,999,8849,0.0007536,0.00017526,0,3766003,0 SPACEBEE-107,1 48894U 21059R   23031.12274832  .00017526  00000-0  75360-3 0  9993,2 48894  97.5785 166.2218 0008461  30.1553 330.0168 15.22682190 88494,2021-059R,48894,6875.891,94.57,503.574,491.939,0,2023/2/28
GENERATED VIA SPACETRACK.ORG API,18 SPCS,48894,SPACEBEE-107,PAYLOAD,U,21059R,2023/1/31 7:40,813088,15.22691891,0.0008442,97.5784,166.4205,29.5514,330.6197,0,999,8852,0.00081989,0.00019083,0,3766475,0 SPACEBEE-107,1 48894U 21059R   23031.31989367  .00019083  00000-0  81989-3 0  9994,2 48894  97.5784 166.4205 0008442  29.5514 330.6197 15.22691891 88529,2021-059R,48894,6875.862,94.569,503.532,491.922,0,2023/3/1
GENERATED VIA SPACETRACK.ORG API,18 SPCS,48894,SPACEBEE-107,PAYLOAD,U,21059R,2023/2/1 8:54,863968,15.22736885,0.0008422,97.5789,167.4816,26.7798,333.3871,0,999,8868,0.00087491,0.00020399,0,3767364,0 SPACEBEE-107,1 48894U 21059R   23032.37131787  .00020399  00000-0  87491-3 0  9992,2 48894  97.5789 167.4816 0008422  26.7798 333.3871 15.22736885 88683,2021-059R,48894,6875.727,94.567,503.382,491.801,0,2023/3/2
GENERATED VIA SPACETRACK.ORG API,18 SPCS,48894,SPACEBEE-107,PAYLOAD,U,21059R,2023/2/1 8:54,863968,15.22736885,0.0008422,97.5789,167.4816,26.7798,333.3871,0,999,8868,0.00087491,0.00020399,0,3767525,0 SPACEBEE-107,1 48894U 21059R   23032.37131787  .00020399  00000-0  87491-3 0  9992,2 48894  97.5789 167.4816 0008422  26.7798 333.3871 15.22736885 88683,2021-059R,48894,6875.727,94.567,503.382,491.801,0,2023/3/3
GENERATED VIA SPACETRACK.ORG API,18 SPCS,48894,SPACEBEE-107,PAYLOAD,U,21059R,2023/2/2 8:34,798272,15.22781488,0.0008372,97.5789,168.4763,23.6532,336.5088,0,999,8883,0.00096948,0.00022649,0,3768366,0 SPACEBEE-107,1 48894U 21059R   23033.35699998  .00022649  00000-0  96948-3 0  9991,2 48894  97.5789 168.4763 0008372  23.6532 336.5088 15.22781488 88832,2021-059R,48894,6875.592,94.564,503.214,491.701,0,2023/3/4
GENERATED VIA SPACETRACK.ORG API,18 SPCS,48894,SPACEBEE-107,PAYLOAD,U,21059R,2023/2/2 19:36,730720,15.22796939,0.0008339,97.5788,168.9405,22.0137,338.1456,0,999,8890,0.00084781,0.00019798,0,3768674,0 SPACEBEE-107,1 48894U 21059R   23033.81697605  .00019798  00000-0  84781-3 0  9998,2 48894  97.5788 168.9405 0008339  22.0137 338.1456 15.22796939 88908,2021-059R,48894,6875.546,94.563,503.144,491.677,0,2023/3/5
GENERATED VIA SPACETRACK.ORG API,18 SPCS,48894,SPACEBEE-107,PAYLOAD,U,21059R,2023/2/3 14:31,539040,15.22830176,0.0008281,97.579,169.7361,18.653,341.5008,0,999,8902,0.000864,0.00020199,0,3770323,0 SPACEBEE-107,1 48894U 21059R   23034.60549235  .00020199  00000-0  86400-3 0  9998,2 48894  97.5790 169.7361 0008281  18.6530 341.5008 15.22830176 89022,2021-059R,48894,6875.446,94.561,503.004,491.617,0,2023/3/6
GENERATED VIA SPACETRACK.ORG API,18 SPCS,48894,SPACEBEE-107,PAYLOAD,U,21059R,2023/2/3 19:15,277280,15.22839137,0.0008262,97.5791,169.935,18.0648,342.088,0,999,8905,0.00087511,0.00020465,0,3770748,0 SPACEBEE-107,1 48894U 21059R   23034.80261895  .00020465  00000-0  87511-3 0  9993,2 48894  97.5791 169.9350 0008262  18.0648 342.0880 15.22839137 89059,2021-059R,48894,6875.419,94.56,502.964,491.603,0,2023/3/7
GENERATED VIA SPACETRACK.ORG API,18 SPCS,48894,SPACEBEE-107,PAYLOAD,U,21059R,2023/2/3 22:25,681888,15.22847342,0.0008271,97.5791,170.0677,17.4212,342.7306,0,999,8907,0.0010034,0.00023491,0,3771009,0 SPACEBEE-107,1 48894U 21059R   23034.93403567  .00023491  00000-0  10034-2 0  9998,2 48894  97.5791 170.0677 0008271  17.4212 342.7306 15.22847342 89073,2021-059R,48894,6875.394,94.56,502.946,491.572,0,2023/3/8
GENERATED VIA SPACETRACK.ORG API,18 SPCS,48894,SPACEBEE-107,PAYLOAD,U,21059R,2023/2/4 14:11,79392,15.22877425,0.0008277,97.5793,170.7306,14.9818,345.1662,0,999,8917,0.00096619,0.00022635,0,3771952,0 SPACEBEE-107,1 48894U 21059R   23035.59111203  .00022635  00000-0  96619-3 0  9997,2 48894  97.5793 170.7306 0008277  14.9818 345.1662 15.22877425 89179,2021-059R,48894,6875.304,94.558,502.859,491.478,0,2023/3/9
GENERATED VIA SPACETRACK.ORG API,18 SPCS,48894,SPACEBEE-107,PAYLOAD,U,21059R,2023/2/4 22:04,353056,15.22892026,0.0008259,97.5795,171.0622,14.1185,346.0281,0,999,8922,0.00086945,0.00020364,0,3772514,0 SPACEBEE-107,1 48894U 21059R   23035.91964529  .00020364  00000-0  86945-3 0  9998,2 48894  97.5795 171.0622 0008259  14.1185 346.0281 15.22892026 89222,2021-059R,48894,6875.26,94.557,502.803,491.446,0,2023/3/10
